NORAD_CAT_ID,OBJECT_NAME,OBJECT_TYPE,EPOCH,MEAN_MOTION,ECCENTRICITY,INCLINATION,RA_OF_ASC_NODE,ARG_OF_PERICENTER,MEAN_ANOMALY,BSTAR,MEAN_MOTION_DOT,MEAN_MOTION_DDOT,TLE_LINE0,TLE_LINE1,TLE_LINE2,SEMIMAJOR_AXIS,PERIOD,APOGEE,PERIGEE,DECAYED
53406.0,STARLINK-4533,PAYLOAD,2024-07-22 09:39:57,15.08844448,0.0001357,53.2151,266.4687,82.1055,278.0091,5.3203e-05,5.59e-06,0.0,0 STARLINK-4533,1 53406U 22097U   24204.40274365  .00000559  00000-0  53203-4 0  9997,2 53406  53.2151 266.4687 0001357  82.1055 278.0091 15.08844448108296,6917.867,95.437,540.671,538.793,0.0
53406.0,STARLINK-4533,PAYLOAD,2024-07-23 12:41:30,15.08846419,0.000159,53.2145,261.4168,82.2777,277.8396,0.00019728,2.854e-05,0.0,0 STARLINK-4533,1 53406U 22097U   24205.52882241  .00002854  00000-0  19728-3 0  9992,2 53406  53.2145 261.4168 0001590  82.2777 277.8396 15.08846419108463,6917.861,95.437,540.826,538.626,0.0
53406.0,STARLINK-4533,PAYLOAD,2024-07-24 12:32:18,15.0883566,0.000176,53.2167,256.9538,79.8607,280.2584,8.6935e-06,-1.5e-06,0.0,0 STARLINK-4533,1 53406U 22097U   24206.52243676 -.00000150  00000-0  86935-5 0  9990,2 53406  53.2167 256.9538 0001760  79.8607 280.2584 15.08835660108610,6917.894,95.438,540.976,538.541,0.0
53406.0,STARLINK-4533,PAYLOAD,2024-07-25 12:23:04,15.08852851,0.0001773,53.2165,252.4918,68.8152,291.3029,0.00018601,2.675e-05,0.0,0 STARLINK-4533,1 53406U 22097U   24207.51602255  .00002675  00000-0  18601-3 0  9998,2 53406  53.2165 252.4918 0001773  68.8152 291.3029 15.08852851108762,6917.841,95.437,540.933,538.48,0.0
53406.0,STARLINK-4533,PAYLOAD,2024-07-26 09:03:05,15.08842385,0.00015,53.2139,248.626,96.8579,263.2583,0.00016844,2.394e-05,0.0,0 STARLINK-4533,1 53406U 22097U   24208.37714755  .00002394  00000-0  16844-3 0  9997,2 53406  53.2139 248.6260 0001500  96.8579 263.2583 15.08842385108890,6917.873,95.437,540.776,538.7,0.0
53406.0,STARLINK-4533,PAYLOAD,2024-07-26 20:10:47,15.08841499,0.0001587,53.214,246.5412,104.36,255.7569,0.00021293,3.103e-05,0.0,0 STARLINK-4533,1 53406U 22097U   24208.84082671  .00003103  00000-0  21293-3 0  9997,2 53406  53.2140 246.5412 0001587 104.3600 255.7569 15.08841499109451,6917.876,95.437,540.839,538.643,0.0
53406.0,STARLINK-4533,PAYLOAD,2024-07-27 05:43:05,15.08848592,0.0001594,53.2138,244.7569,106.6342,253.4825,8.4778e-05,1.062e-05,0.0,0 STARLINK-4533,1 53406U 22097U   24209.23826092  .00001062  00000-0  84778-4 0  9994,2 53406  53.2138 244.7569 0001594 106.6342 253.4825 15.08848592109515,6917.854,95.437,540.822,538.616,0.0
53406.0,STARLINK-4533,PAYLOAD,2024-07-27 08:53:51,15.08849665,0.0001548,53.2152,244.1628,106.3178,253.7985,5.2765e-05,5.52e-06,0.0,0 STARLINK-4533,1 53406U 22097U   24209.37073969  .00000552  00000-0  52765-4 0  9990,2 53406  53.2152 244.1628 0001548 106.3178 253.7985 15.08849665109538,6917.851,95.437,540.787,538.645,0.0
53406.0,STARLINK-4533,PAYLOAD,2024-07-28 05:33:53,15.08835755,0.000144,53.2144,240.2998,99.4504,260.6651,1.0457e-05,-1.22e-06,0.0,0 STARLINK-4533,1 53406U 22097U   24210.23186926 -.00000122  00000-0  10457-4 0  9991,2 53406  53.2144 240.2998 0001440  99.4504 260.6651 15.08835755109174,6917.893,95.438,540.755,538.762,0.0
53406.0,STARLINK-4533,PAYLOAD,2024-07-28 11:55:26,15.08835592,0.0001377,53.2146,239.1116,94.0853,266.0297,-2.8615e-05,-7.43e-06,0.0,0 STARLINK-4533,1 53406U 22097U   24210.49683042 -.00000743  00000-0 -28615-4 0  9995,2 53406  53.2146 239.1116 0001377  94.0853 266.0297 15.08835592109706,6917.894,95.438,540.711,538.806,0.0
53406.0,STARLINK-4533,PAYLOAD,2024-07-29 08:35:26,15.08838537,0.0001327,53.2151,235.2469,89.3954,270.719,1.2699e-05,-8.6e-07,0.0,0 STARLINK-4533,1 53406U 22097U   24211.35794944 -.00000086  00000-0  12699-4 0  9999,2 53406  53.2151 235.2469 0001327  89.3954 270.7190 15.08838537109340,6917.885,95.438,540.668,538.832,0.0
53406.0,STARLINK-4533,PAYLOAD,2024-07-30 06:50:50,15.08837168,0.0001306,53.2146,231.084,89.7109,270.4033,9.8155e-05,1.274e-05,0.0,0 STARLINK-4533,1 53406U 22097U   24212.28531063  .00001274  00000-0  98155-4 0  9993,2 53406  53.2146 231.0840 0001306  89.7109 270.4033 15.08837168109975,6917.889,95.438,540.658,538.851,0.0
53406.0,STARLINK-4533,PAYLOAD,2024-07-30 17:58:32,15.08836854,0.0001301,53.2145,229.0019,88.4443,271.6698,9.6551e-05,1.249e-05,0.0,0 STARLINK-4533,1 53406U 22097U   24212.74899230  .00001249  00000-0  96551-4 0  9997,2 53406  53.2145 229.0019 0001301  88.4443 271.6698 15.08836854109556,6917.89,95.438,540.655,538.855,0.0
53406.0,STARLINK-4533,PAYLOAD,2024-07-31 08:17:01,15.08835539,0.0001432,53.2153,226.3272,94.6538,265.4618,3.613e-05,2.87e-06,0.0,0 STARLINK-4533,1 53406U 22097U   24213.34515751  .00000287  00000-0  36130-4 0  9995,2 53406  53.2153 226.3272 0001432  94.6538 265.4618 15.08835539110133,6917.894,95.438,540.75,538.768,0.0
53406.0,STARLINK-4533,PAYLOAD,2024-08-01 09:43:11,15.08841913,0.0001414,53.2152,221.5688,97.4343,262.6809,7.6028e-05,9.22e-06,0.0,0 STARLINK-4533,1 53406U 22097U   24214.40499310  .00000922  00000-0  76028-4 0  9991,2 53406  53.2152 221.5688 0001414  97.4343 262.6809 15.08841913109801,6917.875,95.437,540.718,538.761,0.0
53406.0,STARLINK-4533,PAYLOAD,2024-08-02 07:58:34,15.08846628,0.0001356,53.2147,217.4047,90.8515,269.2632,0.00013317,1.832e-05,0.0,0 STARLINK-4533,1 53406U 22097U   24215.33234826  .00001832  00000-0  13317-3 0  9995,2 53406  53.2147 217.4047 0001356  90.8515 269.2632 15.08846628110437,6917.86,95.437,540.663,538.787,0.0
53406.0,STARLINK-4533,PAYLOAD,2024-08-02 17:30:54,15.08840632,0.0001354,53.2148,215.62,89.4356,270.6791,6.4093e-05,7.32e-06,0.0,0 STARLINK-4533,1 53406U 22097U   24215.72979400  .00000732  00000-0  64093-4 0  9998,2 53406  53.2148 215.6200 0001354  89.4356 270.6791 15.08840632110008,6917.878,95.438,540.68,538.807,0.0
53406.0,STARLINK-4533,PAYLOAD,2024-08-03 09:24:45,15.08839304,0.0001474,53.2159,212.6444,92.3648,267.7513,6.4884e-06,-1.85e-06,0.0,0 STARLINK-4533,1 53406U 22097U   24216.39219662 -.00000185  00000-0  64884-5 0  9991,2 53406  53.2159 212.6444 0001474  92.3648 267.7513 15.08839304110594,6917.883,95.438,540.767,538.728,0.0
53406.0,STARLINK-4533,PAYLOAD,2024-08-03 20:32:27,15.0884388,0.000141,53.2153,210.5632,93.0142,267.1011,5.6979e-05,6.19e-06,0.0,0 STARLINK-4533,1 53406U 22097U   24216.85587188  .00000619  00000-0  56979-4 0  9999,2 53406  53.2153 210.5632 0001410  93.0142 267.1011 15.08843880110176,6917.869,95.437,540.709,538.758,0.0
53406.0,STARLINK-4533,PAYLOAD,2024-08-04 09:15:32,15.08830114,0.0001627,53.2158,208.1845,96.6058,263.5119,0.00036702,5.556e-05,0.0,0 STARLINK-4533,1 53406U 22097U   24217.38579075  .00005556  00000-0  36702-3 0  9990,2 53406  53.2158 208.1845 0001627  96.6058 263.5119 15.08830114110743,6917.911,95.438,540.901,538.65,0.0
53406.0,STARLINK-4533,PAYLOAD,2024-08-05 05:55:32,15.08844274,0.0001443,53.2154,204.3165,94.9364,265.1793,0.00012413,1.688e-05,0.0,0 STARLINK-4533,1 53406U 22097U   24218.24690724  .00001688  00000-0  12413-3 0  9996,2 53406  53.2154 204.3165 0001443  94.9364 265.1793 15.08844274110387,6917.867,95.437,540.731,538.734,0.0
53406.0,STARLINK-4533,PAYLOAD,2024-08-06 05:46:21,15.08831006,0.0001183,53.2151,199.8557,92.9741,267.1386,-6.4465e-05,-1.313e-05,0.0,0 STARLINK-4533,1 53406U 22097U   24219.24052463 -.00001313  00000-0 -64465-4 0  9991,2 53406  53.2151 199.8557 0001183  92.9741 267.1386 15.08831006110531,6917.908,95.438,540.591,538.954,0.0
53406.0,STARLINK-4533,PAYLOAD,2024-08-07 02:26:21,15.08841949,0.0001249,53.2155,195.993,99.8541,260.2592,1.7895e-05,-3e-08,0.0,0 STARLINK-4533,1 53406U 22097U   24220.10163991 -.00000003  00000-0  17895-4 0  9996,2 53406  53.2155 195.9930 0001249  99.8541 260.2592 15.08841949110668,6917.874,95.437,540.603,538.875,0.0
53406.0,STARLINK-4533,PAYLOAD,2024-08-08 08:38:41,15.08840965,0.0001427,53.2171,190.3421,103.1516,256.9636,0.00023425,3.442e-05,0.0,0 STARLINK-4533,1 53406U 22097U   24221.36020199  .00003442  00000-0  23425-3 0  9991,2 53406  53.2171 190.3421 0001427 103.1516 256.9636 15.08840965111343,6917.877,95.437,540.73,538.755,0.0
53406.0,STARLINK-4533,PAYLOAD,2024-08-09 05:18:42,15.08849771,0.0001508,53.2173,186.4758,88.9324,271.1841,9.3903e-05,1.207e-05,0.0,0 STARLINK-4533,1 53406U 22097U   24222.22132049  .00001207  00000-0  93903-4 0  9991,2 53406  53.2173 186.4758 0001508  88.9324 271.1841 15.08849771111476,6917.851,95.437,540.759,538.672,0.0
53406.0,STARLINK-4533,PAYLOAD,2024-08-09 14:51:01,15.08844411,0.0001418,53.2168,184.6938,92.5877,267.5278,1.8989e-05,1.4e-07,0.0,0 STARLINK-4533,1 53406U 22097U   24222.61876322  .00000014  00000-0  18989-4 0  9999,2 53406  53.2168 184.6938 0001418  92.5877 267.5278 15.08844411111046,6917.867,95.437,540.713,538.751,0.0
53406.0,STARLINK-4533,PAYLOAD,2024-08-10 05:09:29,15.08846555,0.0001535,53.216,182.0165,88.7074,271.4094,0.00010373,1.364e-05,0.0,0 STARLINK-4533,1 53406U 22097U   24223.21492071  .00001364  00000-0  10373-3 0  9998,2 53406  53.2160 182.0165 0001535  88.7074 271.4094 15.08846555111623,6917.86,95.437,540.787,538.663,0.0
53406.0,STARLINK-4533,PAYLOAD,2024-08-11 03:24:53,15.08844965,0.0001316,53.2153,177.8544,103.7326,256.3813,2.7499e-05,1.5e-06,0.0,0 STARLINK-4533,1 53406U 22097U   24224.14228034  .00000150  00000-0  27499-4 0  9997,2 53406  53.2153 177.8544 0001316 103.7326 256.3813 15.08844965111278,6917.865,95.437,540.641,538.82,0.0
53406.0,STARLINK-4533,PAYLOAD,2024-08-11 06:35:38,15.0886387,0.0001442,53.2161,177.2584,99.5564,260.5591,0.00032126,4.832e-05,0.0,0 STARLINK-4533,1 53406U 22097U   24224.27475201  .00004832  00000-0  32126-3 0  9994,2 53406  53.2161 177.2584 0001442  99.5564 260.5591 15.08863870111299,6917.807,95.436,540.67,538.675,0.0
53406.0,STARLINK-4533,PAYLOAD,2024-08-11 20:54:08,15.08838559,0.0001952,53.2161,174.5839,83.4528,276.6687,4.9351e-05,4.97e-06,0.0,0 STARLINK-4533,1 53406U 22097U   24224.87092634  .00000497  00000-0  49351-4 0  9997,2 53406  53.2161 174.5839 0001952  83.4528 276.6687 15.08838559111380,6917.885,95.438,541.1,538.399,0.0
